{
  "type": "FeatureCollection",
  "features": [
    {
      "type": "Feature",
      "properties": {
        "name": "Гуш-Дан (Тель-Авивская агломерация)",
        "population": 4156900,
        "religion": "jewish",
        "activity": "hi-tech"
      },
      "geometry": {
        "type": "Polygon",
        "coordinates": [[
          [34.725, 32.190],
          [34.800, 32.200],
          [34.950, 32.050],
          [34.980, 31.940],
          [34.930, 31.890],
          [34.870, 31.890],
          [34.825, 31.950],
          [34.750, 31.980],
          [34.725, 32.010],
          [34.725, 32.090],
          [34.710, 32.160],
          [34.725, 32.190]
        ]]
      }
    },
    {
      "type": "Feature",
      "properties": {
        "name": "Иерусалимская агломерация",
        "population": 1105000,
        "religion": "mixed",
        "activity": "tourism"
      },
      "geometry": {
        "type": "Polygon",
        "coordinates": [[
          [35.250, 31.850],
          [35.200, 31.860],
          [35.130, 31.780],
          [35.150, 31.720],
          [35.200, 31.700],
          [35.270, 31.730],
          [35.300, 31.770],
          [35.280, 31.820],
          [35.250, 31.850]
        ]]
      }
    },
    {
      "type": "Feature",
      "properties": {
        "name": "Хайфская агломерация",
        "population": 552000,
        "religion": "jewish",
        "activity": "hi-tech"
      },
      "geometry": {
        "type": "MultiPolygon",
        "coordinates": [
          [
            [
              [34.965,32.842],
              [34.967,32.845],
              [34.973,32.847],
              [34.978,32.847],
              [34.982,32.844],
              [34.983,32.839],
              [34.978,32.834],
              [34.972,32.832],
              [34.965,32.837],
              [34.965,32.842]
            ]
          ],
          [
            [
              [34.911,32.834],
              [34.913,32.839],
              [34.919,32.840],
              [34.921,32.837],
              [34.919,32.832],
              [34.914,32.831],
              [34.911,32.833],
              [34.911,32.834]
            ]
          ]
        ]
      }
    },
    {
      "type": "Feature",
      "properties": {
        "name": "Беэр-Шевская агломерация",
        "population": 377000,
        "religion": "mixed",
        "activity": "hi-tech"
      },
      "geometry": {
        "type": "Polygon",
        "coordinates": [[
          [34.700, 31.400],
          [34.750, 31.320],
          [34.790, 31.260],
          [34.780, 31.220],
          [34.740, 31.230],
          [34.720, 31.280],
          [34.700, 31.340],
          [34.700, 31.400]
        ]]
      }
    },
    {
      "type": "Feature",
      "properties": {
        "name": "Эйлат",
        "population": 65000,
        "religion": "jewish",
        "activity": "tourism"
      },
      "geometry": {
        "type": "Polygon",
        "coordinates": [[
          [34.900, 29.610],
          [35.000, 29.610],
          [35.000, 29.530],
          [34.900, 29.530],
          [34.900, 29.610]
        ]]
      }
    }
  ]
}
